{
    "links": {
        "self": "http://www.neowsapp.com/rest/v1/neo/3339218?api_key=iIulBulltgU6a56xZRHN4H3l9WmuAYTsLGpBGhQ2"
    },
    "id": "3339218",
    "neo_reference_id": "3339218",
    "name": "(2006 QZ57)",
    "designation": "2006 QZ57",
    "nasa_jpl_url": "http://ssd.jpl.nasa.gov/sbdb.cgi?sstr=3339218",
    "absolute_magnitude_h": 22.7,
    "estimated_diameter": {
        "kilometers": {
            "estimated_diameter_min": 0.0766575574,
            "estimated_diameter_max": 0.1714115092
        },
        "meters": {
            "estimated_diameter_min": 76.6575573531,
            "estimated_diameter_max": 171.4115092306
        },
        "miles": {
            "estimated_diameter_min": 0.0476327831,
            "estimated_diameter_max": 0.1065101409
        },
        "feet": {
            "estimated_diameter_min": 251.5011804664,
            "estimated_diameter_max": 562.3737359442
        }
    },
    "is_potentially_hazardous_asteroid": false,
    "close_approach_data": [
        {
            "close_approach_date": "2006-03-27",
            "close_approach_date_full": "2006-Mar-27 15:28",
            "epoch_date_close_approach": 1143473280000,
            "relative_velocity": {
                "kilometers_per_second": "22.2606401393",
                "kilometers_per_hour": "80138.3045013648",
                "miles_per_hour": "49794.8259275286"
            },
            "miss_distance": {
                "astronomical": "0.0904140507",
                "lunar": "35.1710657223",
                "kilometers": "13525749.402792009",
                "miles": "8404510.9565433642"
            },
            "orbiting_body": "Mars"
        },
        {
            "close_approach_date": "2006-08-14",
            "close_approach_date_full": "2006-Aug-14 15:50",
            "epoch_date_close_approach": 1155570600000,
            "relative_velocity": {
                "kilometers_per_second": "21.9748054567",
                "kilometers_per_hour": "79109.2996442626",
                "miles_per_hour": "49155.4423261808"
            },
            "miss_distance": {
                "astronomical": "0.0437093039",
                "lunar": "17.0029192171",
                "kilometers": "6538818.762622693",
                "miles": "4063033.5737234434"
            },
            "orbiting_body": "Earth"
        }
    ],
    "orbital_data": {
        "orbit_id": "10",
        "orbit_determination_date": "2017-04-06 09:08:15",
        "first_observation_date": "2006-08-27",
        "last_observation_date": "2006-09-01",
        "data_arc_in_days": 5,
        "observations_used": 27,
        "orbit_uncertainty": "9",
        "minimum_orbit_intersection": ".0339542",
        "jupiter_tisserand_invariant": "2.941",
        "epoch_osculation": "2453977.5",
        "eccentricity": ".7687984212926383",
        "semi_major_axis": "2.540906244210512",
        "inclination": "2.419694180416938",
        "ascending_node_longitude": "270.7535178828691",
        "orbital_period": "1479.385601913553",
        "perihelion_distance": ".5874615350088634",
        "perihelion_argument": "324.6124472424994",
        "aphelion_distance": "4.494350953412161",
        "perihelion_time": "2453916.800563187172",
        "mean_anomaly": "14.77085975715409",
        "mean_motion": ".2433442636824016",
        "equinox": "J2000",
        "orbit_class": {
            "orbit_class_type": "APO",
            "orbit_class_description": "Near-Earth asteroid orbits which cross the Earth’s orbit similar to that of 1862 Apollo",
            "orbit_class_range": "a (semi-major axis) > 1.0 AU; q (perihelion) < 1.017 AU"
        }
    },
    "is_sentry_object": false
}